Name,URL,Latitude,Longitude,Address,Contact
N/A,"https://www.google.com/maps/place/Royal+York+Property+Management/@43.569793,-80.2981224,9z/data=!3m1!5s0x882b38a1d44869d9:0x845662bf17db8605!4m9!1m2!2m1!1sProperty+Managers+in+MississaugaProperty+Managers+in+Burlington!3m5!1s0x882b47d53c7e200f:0xeade8dbf55976b87!8m2!3d43.5971929!4d-79.6359437!16s%2Fg%2F11vdsfm_1q?entry=ttu",43.569793,-80.2981224,N/A,N/A
7th Heaven Property Management Inc,"https://www.google.com/maps/place/7th+Heaven+Property+Management+Inc/@43.569793,-80.2981224,9z/data=!3m1!5s0x882b38a1d44869d9:0x845662bf17db8605!4m10!1m2!2m1!1sProperty+Managers+in+Mississauga!3m6!1s0xa088d1268a9e4015:0x4654c41cb315dda6!8m2!3d43.6272588!4d-79.6279598!15sCiBQcm9wZXJ0eSBNYW5hZ2VycyBpbiBNaXNzaXNzYXVnYZIBG3Byb3BlcnR5X21hbmFnZW1lbnRfY29tcGFueeABAA!16s%2Fg%2F11qg1dxhlt?entry=ttu",43.569793,-80.2981224,"1055 Canadian Pl Unit #108, Mississauga, ON L4W 1J9, Canada",+1 437-774-7674
7th Heaven Property Management Inc,"https://www.google.com/maps/place/7th+Heaven+Property+Management+Inc/@43.569793,-80.2981224,9z/data=!3m1!5s0x882b38a1d44869d9:0x845662bf17db8605!4m10!1m2!2m1!1sProperty+Managers+in+Mississauga!3m6!1s0xa088d1268a9e4015:0x4654c41cb315dda6!8m2!3d43.6272588!4d-79.6279598!15sCiBQcm9wZXJ0eSBNYW5hZ2VycyBpbiBNaXNzaXNzYXVnYZIBG3Byb3BlcnR5X21hbmFnZW1lbnRfY29tcGFueeABAA!16s%2Fg%2F11qg1dxhlt?entry=ttu",43.569793,-80.2981224,"320 Matheson Blvd W #303, Mississauga, ON L5R 3L9, Canada",N/A
7th Heaven Property Management Inc,"https://www.google.com/maps/place/Condo1+Property+Management+Inc/@43.569793,-80.2981224,9z/data=!4m10!1m2!2m1!1sProperty+Managers+in+Mississauga!3m6!1s0x882b40bd67cddc19:0x310f4becfa359da!8m2!3d43.605572!4d-79.652933!15sCiBQcm9wZXJ0eSBNYW5hZ2VycyBpbiBNaXNzaXNzYXVnYZIBG3Byb3BlcnR5X21hbmFnZW1lbnRfY29tcGFueeABAA!16s%2Fg%2F11bv6l9cpg?entry=ttu",43.569793,-80.2981224,"30 Eglinton Ave W #200, Mississauga, ON L5R 3E7, Canada",N/A
7th Heaven Property Management Inc,"https://www.google.com/maps/place/Maple+Ridge+Community+Management/@43.569793,-80.2981224,9z/data=!4m10!1m2!2m1!1sProperty+Managers+in+Mississauga!3m6!1s0x882b3f50b3f50609:0xa39191598897a010!8m2!3d43.6319444!4d-79.6591667!15sCiBQcm9wZXJ0eSBNYW5hZ2VycyBpbiBNaXNzaXNzYXVnYVoiIiBwcm9wZXJ0eSBtYW5hZ2VycyBpbiBtaXNzaXNzYXVnYZIBG3Byb3BlcnR5X21hbmFnZW1lbnRfY29tcGFueeABAA!16s%2Fg%2F1pzvcxq0y?entry=ttu",43.569793,-80.2981224,"5753 Coopers Ave, Mississauga, ON L4Z 1R9, Canada",N/A
7th Heaven Property Management Inc,"https://www.google.com/maps/place/7th+Heaven+Property+Management+Inc/@43.569793,-80.2981224,9z/data=!3m1!5s0x882b38a1d44869d9:0x845662bf17db8605!4m10!1m2!2m1!1sProperty+Managers+in+Mississauga!3m6!1s0xa088d1268a9e4015:0x4654c41cb315dda6!8m2!3d43.6272588!4d-79.6279598!15sCiBQcm9wZXJ0eSBNYW5hZ2VycyBpbiBNaXNzaXNzYXVnYZIBG3Byb3BlcnR5X21hbmFnZW1lbnRfY29tcGFueeABAA!16s%2Fg%2F11qg1dxhlt?entry=ttu",43.569793,-80.2981224,"1055 Canadian Pl Unit #108, Mississauga, ON L4W 1J9, Canada",+1 437-774-7674
7th Heaven Property Management Inc,"https://www.google.com/maps/place/Maple+Ridge+Community+Management/@43.569793,-80.2981224,9z/data=!4m10!1m2!2m1!1sProperty+Managers+in+Mississauga!3m6!1s0x882b3f50b3f50609:0xa39191598897a010!8m2!3d43.6319444!4d-79.6591667!15sCiBQcm9wZXJ0eSBNYW5hZ2VycyBpbiBNaXNzaXNzYXVnYVoiIiBwcm9wZXJ0eSBtYW5hZ2VycyBpbiBtaXNzaXNzYXVnYZIBG3Byb3BlcnR5X21hbmFnZW1lbnRfY29tcGFueeABAA!16s%2Fg%2F1pzvcxq0y?entry=ttu",43.569793,-80.2981224,"5753 Coopers Ave, Mississauga, ON L4Z 1R9, Canada",N/A
Maple Ridge Community Management,"https://www.google.com/maps/place/Duka+Property+Management+Inc/@43.569793,-80.2981224,9z/data=!4m10!1m2!2m1!1sProperty+Managers+in+Mississauga!3m6!1s0x882b396f69187219:0xb25ed97387576761!8m2!3d43.6901742!4d-79.6198665!15sCiBQcm9wZXJ0eSBNYW5hZ2VycyBpbiBNaXNzaXNzYXVnYZIBG3Byb3BlcnR5X21hbmFnZW1lbnRfY29tcGFueeABAA!16s%2Fg%2F11sy73dtm8?entry=ttu",43.569793,-80.2981224,"6205 Airport Rd, Mississauga, ON L4V 1E1, Canada",N/A
Duka Property Management Inc,"https://www.google.com/maps/place/FirstService+Residential+Toronto/@43.569793,-80.2981224,9z/data=!3m1!5s0x882b396f65c008af:0x26fed04adcd6b8b7!4m10!1m2!2m1!1sProperty+Managers+in+Mississauga!3m6!1s0x882b3992c3abb781:0x506bea8dd566575e!8m2!3d43.6595906!4d-79.5987939!15sCiBQcm9wZXJ0eSBNYW5hZ2VycyBpbiBNaXNzaXNzYXVnYVoiIiBwcm9wZXJ0eSBtYW5hZ2VycyBpbiBtaXNzaXNzYXVnYZIBG3Byb3BlcnR5X21hbmFnZW1lbnRfY29tcGFueeABAA!16s%2Fg%2F1pp2v07gy?entry=ttu",43.569793,-80.2981224,"2645 Skymark Ave #101, Mississauga, ON L4W 4H2, Canada",N/A
FirstService Residential Toronto,"https://www.google.com/maps/place/FirstService+Residential+Toronto/@43.569793,-80.2981224,9z/data=!4m10!1m2!2m1!1sProperty+Managers+in+Mississauga!3m6!1s0x882b3992c3abb781:0x506bea8dd566575e!8m2!3d43.6595906!4d-79.5987939!15sCiBQcm9wZXJ0eSBNYW5hZ2VycyBpbiBNaXNzaXNzYXVnYVoiIiBwcm9wZXJ0eSBtYW5hZ2VycyBpbiBtaXNzaXNzYXVnYZIBG3Byb3BlcnR5X21hbmFnZW1lbnRfY29tcGFueeABAA!16s%2Fg%2F1pp2v07gy?entry=ttu",43.569793,-80.2981224,"2645 Skymark Ave #101, Mississauga, ON L4W 4H2, Canada",N/A
FirstService Residential Toronto,"https://www.google.com/maps/place/Stress+Free+Property+Management+Inc./@43.569793,-80.2981224,9z/data=!4m10!1m2!2m1!1sProperty+Managers+in+Mississauga!3m6!1s0x882b5cd93210437b:0xd26d172bfcd9c0f2!8m2!3d43.570693!4d-79.6386306!15sCiBQcm9wZXJ0eSBNYW5hZ2VycyBpbiBNaXNzaXNzYXVnYVoiIiBwcm9wZXJ0eSBtYW5hZ2VycyBpbiBtaXNzaXNzYXVnYZIBG3Byb3BlcnR5X21hbmFnZW1lbnRfY29tcGFueeABAA!16s%2Fg%2F11b5_2xxtt?entry=ttu",43.569793,-80.2981224,N/A,+1 888-779-3121
Stress Free Property Management Inc.,"https://www.google.com/maps/place/Britannia+Property+Management+Inc/@43.569793,-80.2981224,9z/data=!4m10!1m2!2m1!1sProperty+Managers+in+Mississauga!3m6!1s0x882b38d30a756b9b:0xcaa631c9742be010!8m2!3d43.6576747!4d-79.6475978!15sCiBQcm9wZXJ0eSBNYW5hZ2VycyBpbiBNaXNzaXNzYXVnYZIBG3Byb3BlcnR5X21hbmFnZW1lbnRfY29tcGFueeABAA!16s%2Fg%2F11h_6hxbsj?entry=ttu",43.569793,-80.2981224,"Britannia Rd E, Mississauga, ON L5T 1L6, Canada",+1 416-792-0438
Britannia Property Management Inc,"https://www.google.com/maps/place/Safe+House+Property+Management/@43.569793,-80.2981224,9z/data=!4m10!1m2!2m1!1sProperty+Managers+in+Mississauga!3m6!1s0x882b3fb8464f1983:0xc094bb068280336f!8m2!3d43.6968643!4d-79.6569645!15sCiBQcm9wZXJ0eSBNYW5hZ2VycyBpbiBNaXNzaXNzYXVnYVoiIiBwcm9wZXJ0eSBtYW5hZ2VycyBpbiBtaXNzaXNzYXVnYZIBG3Byb3BlcnR5X21hbmFnZW1lbnRfY29tcGFueeABAA!16s%2Fg%2F11t7_p6qld?entry=ttu",43.569793,-80.2981224,"7150 Torbram Rd Unit 15b, Mississauga, ON L4T 4B5, Canada",+1 647-694-3182
Safe House Property Management,"https://www.google.com/maps/place/GSA+Property+Management/@43.569793,-80.2981224,9z/data=!4m10!1m2!2m1!1sProperty+Managers+in+Mississauga!3m6!1s0x405a0190a791e57b:0x46b0c35b3d9ee6e2!8m2!3d43.5294057!4d-79.7187214!15sCiBQcm9wZXJ0eSBNYW5hZ2VycyBpbiBNaXNzaXNzYXVnYZIBG3Byb3BlcnR5X21hbmFnZW1lbnRfY29tcGFueeABAA!16s%2Fg%2F11b6lh09qz?entry=ttu",43.569793,-80.2981224,"4141 Sladeview Crescent #20, Mississauga, ON L5L 5T1, Canada",Send to your phone
GSA Property Management,"https://www.google.com/maps/place/Larlyn+Property+Management+Ltd.+-+GTA/@43.5294057,-80.8722859,9z/data=!4m10!1m2!2m1!1sProperty+Managers+in+Mississauga!3m6!1s0x89d4d4d906b047f1:0x664d3dcd75ddf52e!8m2!3d43.6909129!4d-79.6731549!15sCiBQcm9wZXJ0eSBNYW5hZ2VycyBpbiBNaXNzaXNzYXVnYVoiIiBwcm9wZXJ0eSBtYW5hZ2VycyBpbiBtaXNzaXNzYXVnYZIBG3Byb3BlcnR5X21hbmFnZW1lbnRfY29tcGFueeABAA!16s%2Fg%2F1wk4f0vv?entry=ttu",43.5294057,-80.8722859,"7370 Bramalea Rd #20, Mississauga, ON L5S 1N6, Canada",N/A
Larlyn Property Management Ltd. - GTA,"https://www.google.com/maps/place/ALBA+Property+Management+Inc/@43.5294057,-80.8722859,9z/data=!3m1!5s0x882b3e9616c9799b:0x4f09876720be0aa8!4m10!1m2!2m1!1sProperty+Managers+in+Mississauga!3m6!1s0x882b47a5c3aaaaad:0xa2c72d64732b1b4f!8m2!3d43.5997736!4d-79.5797958!15sCiBQcm9wZXJ0eSBNYW5hZ2VycyBpbiBNaXNzaXNzYXVnYZIBG3Byb3BlcnR5X21hbmFnZW1lbnRfY29tcGFueeABAA!16s%2Fg%2F11h1r_cnvq?entry=ttu",43.5294057,-80.8722859,"1235 Queensway E #13a, Mississauga, ON L4Y 0G4, Canada",N/A
ALBA Property Management Inc,"https://www.google.com/maps/place/Gentle+Property+Management+Ltd./@43.5294057,-80.8722859,9z/data=!4m10!1m2!2m1!1sProperty+Managers+in+Mississauga!3m6!1s0x2ba12ece8e19865b:0x409b7cab41ed3029!8m2!3d43.5912644!4d-79.636863!15sCiBQcm9wZXJ0eSBNYW5hZ2VycyBpbiBNaXNzaXNzYXVnYZIBG3Byb3BlcnR5X21hbmFnZW1lbnRfY29tcGFueeABAA!16s%2Fg%2F11rgff3ly8?entry=ttu",43.5294057,-80.8722859,"90 Burnhamthorpe Rd W #1400, Mississauga, ON L5B 3C3, Canada",N/A
Gentle Property Management Ltd.,"https://www.google.com/maps/place/Your+Best+Property+Inc./@43.5294057,-80.8722859,9z/data=!3m1!5s0x882b3ff402790215:0xe6903cf4dcce92e7!4m10!1m2!2m1!1sProperty+Managers+in+Mississauga!3m6!1s0xd3ff21081106725:0x69c70b9d312b11d8!8m2!3d43.5207721!4d-79.670837!15sCiBQcm9wZXJ0eSBNYW5hZ2VycyBpbiBNaXNzaXNzYXVnYZIBG3Byb3BlcnR5X21hbmFnZW1lbnRfY29tcGFueeABAA!16s%2Fg%2F11jz7fxtwq?entry=ttu",43.5294057,-80.8722859,"2592 Barcella Crescent, Mississauga, ON L5K 1E6, Canada",N/A
Your Best Property Inc.,"https://www.google.com/maps/place/Flower+Fence+Property+Management/@43.5294057,-80.8722859,9z/data=!4m10!1m2!2m1!1sProperty+Managers+in+Mississauga!3m6!1s0x882b41310de9d1ff:0x822a18c8f3dc7673!8m2!3d43.625599!4d-79.72907!15sCiBQcm9wZXJ0eSBNYW5hZ2VycyBpbiBNaXNzaXNzYXVnYZIBG3Byb3BlcnR5X21hbmFnZW1lbnRfY29tcGFueeABAA!16s%2Fg%2F11ldvb1cg8?entry=ttu",43.5294057,-80.8722859,"1060 Old Derry Rd Unit 1, Mississauga, ON L5W 1A1, Canada",N/A
Flower Fence Property Management,"https://www.google.com/maps/place/H+%26+R+Property+Management:+For+Rent:+1,+2,+3+Bedroom+Apartments/@43.5294057,-80.8722859,9z/data=!4m10!1m2!2m1!1sProperty+Managers+in+Mississauga!3m6!1s0x882b46f7c6cc334f:0xa940c8a6a138fc83!8m2!3d43.5744014!4d-79.6061184!15sCiBQcm9wZXJ0eSBNYW5hZ2VycyBpbiBNaXNzaXNzYXVnYZIBF2FwYXJ0bWVudF9yZW50YWxfYWdlbmN54AEA!16s%2Fg%2F1tdw8ptn?entry=ttu",43.5294057,-80.8722859,"2247 Hurontario St, Mississauga, ON L5A 2G2, Canada",N/A
"H & R Property Management: For Rent: 1, 2, 3 Bedroom Apartments","https://www.google.com/maps/place/H+%26+R+Property+Management:+For+Rent:+1,+2,+3+Bedroom+Apartments/@43.5294057,-80.8722859,9z/data=!4m10!1m2!2m1!1sProperty+Managers+in+Mississauga!3m6!1s0x882b46f7c6cc334f:0xa940c8a6a138fc83!8m2!3d43.5744014!4d-79.6061184!15sCiBQcm9wZXJ0eSBNYW5hZ2VycyBpbiBNaXNzaXNzYXVnYZIBF2FwYXJ0bWVudF9yZW50YWxfYWdlbmN54AEA!16s%2Fg%2F1tdw8ptn?entry=ttu",43.5294057,-80.8722859,"2425 Matheson Blvd E, Mississauga, ON L4W 5K4, Canada",+1 647-727-4544
Crown Realty Partners - 2425 Matheson Blvd East,"https://www.google.com/maps/place/Provincial+Property+Management+Limited/@43.5294057,-80.8722859,9z/data=!3m1!5s0x882b767a0c1493e5:0xaff7aa478551e659!4m10!1m2!2m1!1sProperty+Managers+in+Mississauga!3m6!1s0x882b38aeadba59af:0xbfb9ace8e4f578d8!8m2!3d43.6247835!4d-79.6377805!15sCiBQcm9wZXJ0eSBNYW5hZ2VycyBpbiBNaXNzaXNzYXVnYVoiIiBwcm9wZXJ0eSBtYW5hZ2VycyBpbiBtaXNzaXNzYXVnYZIBG3Byb3BlcnR5X21hbmFnZW1lbnRfY29tcGFueZoBJENoZERTVWhOTUc5blMwVkpRMEZuU1VOT09EVnlVbmwzUlJBQuABAA!16s%2Fg%2F1v_0kcn7?entry=ttu",43.5294057,-80.8722859,"5106 Timberlea Blvd 2nd Floor, Mississauga, ON L4W 2S5, Canada",N/A
Provincial Property Management Limited,"https://www.google.com/maps/place/Auxilium+Properties+Inc./@43.5294057,-80.8722859,9z/data=!4m10!1m2!2m1!1sProperty+Managers+in+Mississauga!3m6!1s0x882b393d50942475:0xf91cebccc7546ef8!8m2!3d43.6492628!4d-79.6617774!15sCiBQcm9wZXJ0eSBNYW5hZ2VycyBpbiBNaXNzaXNzYXVnYVoiIiBwcm9wZXJ0eSBtYW5hZ2VycyBpbiBtaXNzaXNzYXVnYZIBG3Byb3BlcnR5X21hbmFnZW1lbnRfY29tcGFueZoBJENoZERTVWhOTUc5blMwVkpRMEZuU1VSc2RTMXBhekZuUlJBQuABAA!16s%2Fg%2F11ry9gpck2?entry=ttu",43.5294057,-80.8722859,"6155 Tomken Rd Unit #6, Mississauga, ON L5T 1X5, Canada",N/A
Auxilium Properties Inc.,"https://www.google.com/maps/place/Summerhill+Property+Management/@43.5294057,-80.8722859,9z/data=!4m10!1m2!2m1!1sProperty+Managers+in+Mississauga!3m6!1s0x882b385369955193:0xfe875f7220983631!8m2!3d43.6583546!4d-79.5983394!15sCiBQcm9wZXJ0eSBNYW5hZ2VycyBpbiBNaXNzaXNzYXVnYVoiIiBwcm9wZXJ0eSBtYW5hZ2VycyBpbiBtaXNzaXNzYXVnYZIBG3Byb3BlcnR5X21hbmFnZW1lbnRfY29tcGFueZoBI0NoWkRTVWhOTUc5blMwVkpRMEZuU1VOUE5IWXROa2hSRUFF4AEA!16s%2Fg%2F1vpq7j61?entry=ttu",43.5294057,-80.8722859,"2600 Skymark Ave, Mississauga, ON L4W 5B2, Canada",+1 905-212-9966
Summerhill Property Management,"https://www.google.com/maps/place/Orion+Management/@43.5294057,-80.8722859,9z/data=!3m1!5s0x882b385314697e07:0x12e4581be6954b4f!4m10!1m2!2m1!1sProperty+Managers+in+Mississauga!3m6!1s0x882b38d357efcb3b:0x18a528f4cb9f516c!8m2!3d43.6600408!4d-79.6499474!15sCiBQcm9wZXJ0eSBNYW5hZ2VycyBpbiBNaXNzaXNzYXVnYVoiIiBwcm9wZXJ0eSBtYW5hZ2VycyBpbiBtaXNzaXNzYXVnYZIBG3Byb3BlcnR5X21hbmFnZW1lbnRfY29tcGFueZoBJENoZERTVWhOTUc5blMwVkpRMEZuU1VSNU1VMHpjSGRuUlJBQuABAA!16s%2Fg%2F1tt8cxdv?entry=ttu",43.5294057,-80.8722859,"1575 Trinity Dr, Mississauga, ON L5T 1K4, Canada",N/A
Orion Management,"https://www.google.com/maps/place/Royal+York+Property+Management+-+Brampton/@43.5294057,-80.8722859,9z/data=!3m1!5s0x882b38d462354853:0x1ef9a78299f3a6f!4m10!1m2!2m1!1sProperty+Managers+in+Mississauga!3m6!1s0x882b3f71eeb2fd9d:0xa459cbf15461950a!8m2!3d43.6628794!4d-79.7277186!15sCiBQcm9wZXJ0eSBNYW5hZ2VycyBpbiBNaXNzaXNzYXVnYVoiIiBwcm9wZXJ0eSBtYW5hZ2VycyBpbiBtaXNzaXNzYXVnYZIBG3Byb3BlcnR5X21hbmFnZW1lbnRfY29tcGFueZoBJENoZERTVWhOTUc5blMwVkpRMEZuU1VSRUxVMUlOamgzUlJBQuABAA!16s%2Fg%2F11qntwc2rb?entry=ttu",43.5294057,-80.8722859,"2 County Ct Blvd Suite # 400, Brampton, ON L6W 3W8, Canada",Closed ⋅ Opens 9 AM Mon
Royal York Property Management - Brampton,"https://www.google.com/maps/place/Berkley+Property+Management/@43.5294057,-80.8722859,9z/data=!4m10!1m2!2m1!1sProperty+Managers+in+Mississauga!3m6!1s0x882b47861d45304d:0x3d106e8399a47c2b!8m2!3d43.6171316!4d-79.5937043!15sCiBQcm9wZXJ0eSBNYW5hZ2VycyBpbiBNaXNzaXNzYXVnYZIBG3Byb3BlcnR5X21hbmFnZW1lbnRfY29tcGFueeABAA!16s%2Fg%2F1tcxkdcv?entry=ttu",43.5294057,-80.8722859,"1440 Bloor St, Mississauga, ON L4X 1R5, Canada",N/A
Berkley Property Management,"https://www.google.com/maps/place/QuadReal+Property+Group+Mississauga/@43.5294057,-80.8722859,9z/data=!4m10!1m2!2m1!1sProperty+Managers+in+Mississauga!3m6!1s0x882b6b2b24f64817:0x7f565f6568919e51!8m2!3d43.5989363!4d-79.7407111!15sCiBQcm9wZXJ0eSBNYW5hZ2VycyBpbiBNaXNzaXNzYXVnYVoiIiBwcm9wZXJ0eSBtYW5hZ2VycyBpbiBtaXNzaXNzYXVnYZIBG3Byb3BlcnR5X21hbmFnZW1lbnRfY29tcGFueZoBI0NoWkRTVWhOTUc5blMwVkpRMEZuU1VOVU1YWlRXR1JuRUFF4AEA!16s%2Fg%2F11gpndwvrv?entry=ttu",43.5294057,-80.8722859,"Plaza 5, 2000 Argentia Rd Suite 101, Mississauga, ON L5N 2R7, Canada",N/A
QuadReal Property Group Mississauga,"https://www.google.com/maps/place/DPSI+-+Diversity+Property+Services+Inc/@43.5294057,-80.8722859,9z/data=!4m10!1m2!2m1!1sProperty+Managers+in+Mississauga!3m6!1s0x882b6a499c86addf:0x93232eeece8ce8e5!8m2!3d43.5837857!4d-79.7784483!15sCiBQcm9wZXJ0eSBNYW5hZ2VycyBpbiBNaXNzaXNzYXVnYVoiIiBwcm9wZXJ0eSBtYW5hZ2VycyBpbiBtaXNzaXNzYXVnYZIBG3Byb3BlcnR5X21hbmFnZW1lbnRfY29tcGFueZoBJENoZERTVWhOTUc5blMwVkpRMEZuU1VRdGNYTXlSV3RSUlJBQuABAA!16s%2Fg%2F11h27zfknt?entry=ttu",43.5294057,-80.8722859,"3221 Derry Rd W #3, Mississauga, ON L5N 8G5, Canada",N/A
DPSI - Diversity Property Services Inc,"https://www.google.com/maps/place/Maple+Ridge+Property+Management/@43.5294057,-80.8722859,9z/data=!4m10!1m2!2m1!1sProperty+Managers+in+Mississauga!3m6!1s0x882b387919457635:0x9bea07f96a2ad639!8m2!3d43.623689!4d-79.5989788!15sCiBQcm9wZXJ0eSBNYW5hZ2VycyBpbiBNaXNzaXNzYXVnYZIBG3Byb3BlcnR5X21hbmFnZW1lbnRfY29tcGFueeABAA!16s%2Fg%2F11b5wqclfh?entry=ttu",43.5294057,-80.8722859,"1485 Gulleden Dr, Mississauga, ON L4X 2T2, Canada",+1 905-624-9155
Maple Ridge Property Management,"https://www.google.com/maps/place/Gold+Tree+Management+Inc./@43.5294057,-80.8722859,9z/data=!4m10!1m2!2m1!1sProperty+Managers+in+Mississauga!3m6!1s0x882b39bb1d95b507:0x66fc18356196c586!8m2!3d43.6436843!4d-79.6283475!15sCiBQcm9wZXJ0eSBNYW5hZ2VycyBpbiBNaXNzaXNzYXVnYZIBG3Byb3BlcnR5X21hbmFnZW1lbnRfY29tcGFueeABAA!16s%2Fg%2F11s8300qfz?entry=ttu",43.5294057,-80.8722859,"suit 1800, 8th floor, 24525, Matheson Blvd E, Mississauga, ON L4W 5K4, Canada",+1 416-937-5352
Gold Tree Management Inc.,"https://www.google.com/maps/place/Embee+Properties+Limited/@43.5294057,-80.8722859,9z/data=!4m10!1m2!2m1!1sProperty+Managers+in+Mississauga!3m6!1s0x882b46fbad2adfc7:0xcdccf679974e7341!8m2!3d43.5771703!4d-79.6125257!15sCiBQcm9wZXJ0eSBNYW5hZ2VycyBpbiBNaXNzaXNzYXVnYZIBG3Byb3BlcnR5X21hbmFnZW1lbnRfY29tcGFueeABAA!16s%2Fg%2F1hc2w41xz?entry=ttu",43.5294057,-80.8722859,"2470 Hurontario St, Mississauga, ON L5B 0H2, Canada","H9GP+VX Mississauga, Ontario, Canada"
Embee Properties Limited,"https://www.google.com/maps/place/KOLT+Management+Inc./@43.5294057,-80.8722859,9z/data=!4m10!1m2!2m1!1sProperty+Managers+in+Mississauga!3m6!1s0x882b3da665a963df:0xfa9ecbdf568f0305!8m2!3d43.6484037!4d-79.6095062!15sCiBQcm9wZXJ0eSBNYW5hZ2VycyBpbiBNaXNzaXNzYXVnYVoiIiBwcm9wZXJ0eSBtYW5hZ2VycyBpbiBtaXNzaXNzYXVnYZIBG3Byb3BlcnR5X21hbmFnZW1lbnRfY29tcGFueZoBI0NoWkRTVWhOTUc5blMwVkpRMEZuU1VObGRtSjVZMDVCRUFF4AEA!16s%2Fg%2F11smwlw68l?entry=ttu",43.5294057,-80.8722859,"5060 Spectrum Way unit 301, Mississauga, ON L4W 5N5, Canada",N/A
KOLT Management Inc.,"https://www.google.com/maps/place/Real+Property+Management+Service/@43.5294057,-80.8722859,9z/data=!3m1!5s0x882b38f6e681c16b:0x6f8cbe4abd86b588!4m10!1m2!2m1!1sProperty+Managers+in+Mississauga!3m6!1s0x882b365481a2437b:0x8560d98b1d9af669!8m2!3d43.647171!4d-79.5128707!15sCiBQcm9wZXJ0eSBNYW5hZ2VycyBpbiBNaXNzaXNzYXVnYVoiIiBwcm9wZXJ0eSBtYW5hZ2VycyBpbiBtaXNzaXNzYXVnYZIBG3Byb3BlcnR5X21hbmFnZW1lbnRfY29tcGFueZoBJENoZERTVWhOTUc5blMwVkpRMEZuU1VOUGRscHhRWFozUlJBQuABAA!16s%2Fg%2F1vq9mxyq?entry=ttu",43.5294057,-80.8722859,"3048A Bloor St W Unit 1, Toronto, ON M8X 1C4, Canada",N/A
Real Property Management Service,"https://www.google.com/maps/place/Integrity+Property+Management/@43.5294057,-80.8722859,9z/data=!4m10!1m2!2m1!1sProperty+Managers+in+Mississauga!3m6!1s0x882b3f76fc49286f:0x450fc3ac0280aae5!8m2!3d43.6422993!4d-79.6918655!15sCiBQcm9wZXJ0eSBNYW5hZ2VycyBpbiBNaXNzaXNzYXVnYZIBG3Byb3BlcnR5X21hbmFnZW1lbnRfY29tcGFueeABAA!16s%2Fg%2F11ql_661h1?entry=ttu",43.5294057,-80.8722859,"210 Ambassador Dr, Mississauga, ON L5T 2J2, Canada",N/A
Integrity Property Management,"https://www.google.com/maps/place/Advent+Property+Management+Services/@43.5294057,-80.8722859,9z/data=!4m10!1m2!2m1!1sProperty+Managers+in+Mississauga!3m6!1s0x882b3897316b3bdb:0xf516c89a6c649c07!8m2!3d43.622097!4d-79.5796451!15sCiBQcm9wZXJ0eSBNYW5hZ2VycyBpbiBNaXNzaXNzYXVnYZIBG3Byb3BlcnR5X21hbmFnZW1lbnRfY29tcGFueeABAA!16s%2Fg%2F11b5wkr9gt?entry=ttu",43.5294057,-80.8722859,"3222 Wharton Way, Mississauga, ON L4X 2C1, Canada",+1 905-625-7563
Advent Property Management Services,"https://www.google.com/maps/place/Panoramic+Properties/@43.5294057,-80.8722859,9z/data=!4m10!1m2!2m1!1sProperty+Managers+in+Mississauga!3m6!1s0x882b465887e0ee79:0x3c7ef58316586b2d!8m2!3d43.572324!4d-79.604027!15sCiBQcm9wZXJ0eSBNYW5hZ2VycyBpbiBNaXNzaXNzYXVnYVoiIiBwcm9wZXJ0eSBtYW5hZ2VycyBpbiBtaXNzaXNzYXVnYZIBEmFwYXJ0bWVudF9idWlsZGluZ5oBJENoZERTVWhOTUc5blMwVkpRMEZuU1VSb2NrMVBUbXQzUlJBQuABAA!16s%2Fg%2F1td2hk1w?entry=ttu",43.5294057,-80.8722859,N/A,N/A
Panoramic Properties,"https://www.google.com/maps/place/Buttonwood+Property+Management/@43.5294057,-80.8722859,9z/data=!4m10!1m2!2m1!1sProperty+Managers+in+Mississauga!3m6!1s0x882b3527ffbca785:0xe225974622225f02!8m2!3d43.6424564!4d-79.3755156!15sCiBQcm9wZXJ0eSBNYW5hZ2VycyBpbiBNaXNzaXNzYXVnYVoiIiBwcm9wZXJ0eSBtYW5hZ2VycyBpbiBtaXNzaXNzYXVnYZIBG3Byb3BlcnR5X21hbmFnZW1lbnRfY29tcGFueZoBI0NoWkRTVWhOTUc5blMwVkpRMEZuU1VSdGRHOXFPRkpuRUFF4AEA!16s%2Fg%2F1ydpvbp30?entry=ttu",43.5294057,-80.8722859,"10 Yonge St Unit 2212, Toronto, ON M5E 1R4, Canada",N/A
Buttonwood Property Management,"https://www.google.com/maps/place/Icon+Property+Management/@43.5294057,-80.8722859,9z/data=!3m1!5s0x89d4cb2d279c1bdf:0xd1f9e280dc21935a!4m10!1m2!2m1!1sProperty+Managers+in+Mississauga!3m6!1s0x882b37d63bd92e97:0x19f828df4a850f4e!8m2!3d43.6156364!4d-79.5230614!15sCiBQcm9wZXJ0eSBNYW5hZ2VycyBpbiBNaXNzaXNzYXVnYVoiIiBwcm9wZXJ0eSBtYW5hZ2VycyBpbiBtaXNzaXNzYXVnYZIBG3Byb3BlcnR5X21hbmFnZW1lbnRfY29tcGFueZoBI0NoWkRTVWhOTUc5blMwVkpRMEZuU1VRdE1UWjFRbEIzRUFF4AEA!16s%2Fg%2F11b5wmmr0p?entry=ttu",43.5294057,-80.8722859,"10 Yonge St Unit 2212, Toronto, ON M5E 1R4, Canada",N/A
Buttonwood Property Management,"https://www.google.com/maps/place/Icon+Property+Management/@43.5294057,-80.8722859,9z/data=!3m1!5s0x882b37d6397bf083:0x7ba2351100c58563!4m10!1m2!2m1!1sProperty+Managers+in+Mississauga!3m6!1s0x882b37d63bd92e97:0x19f828df4a850f4e!8m2!3d43.6156364!4d-79.5230614!15sCiBQcm9wZXJ0eSBNYW5hZ2VycyBpbiBNaXNzaXNzYXVnYVoiIiBwcm9wZXJ0eSBtYW5hZ2VycyBpbiBtaXNzaXNzYXVnYZIBG3Byb3BlcnR5X21hbmFnZW1lbnRfY29tcGFueZoBI0NoWkRTVWhOTUc5blMwVkpRMEZuU1VRdE1UWjFRbEIzRUFF4AEA!16s%2Fg%2F11b5wmmr0p?entry=ttu",43.5294057,-80.8722859,"365 Evans Ave. Suite 601, Etobicoke, ON M8Z 1K2, Canada",N/A
Icon Property Management,"https://www.google.com/maps/place/MetCap+Living/@43.5294057,-80.8722859,9z/data=!3m1!5s0x882b37d6397bf083:0x7ba2351100c58563!4m10!1m2!2m1!1sProperty+Managers+in+Mississauga!3m6!1s0x882b3b1f127900a3:0x4d3962305a8f3731!8m2!3d43.7196916!4d-79.6330603!15sCiBQcm9wZXJ0eSBNYW5hZ2VycyBpbiBNaXNzaXNzYXVnYZIBG3Byb3BlcnR5X21hbmFnZW1lbnRfY29tcGFueeABAA!16s%2Fg%2F11q95tl_tw?entry=ttu",43.5294057,-80.8722859,"7170 Darcel Ave, Mississauga, ON L4T 3T5, Canada",N/A
MetCap Living,"https://www.google.com/maps/place/Canlight+Management+Inc./@43.5294057,-80.8722859,9z/data=!4m10!1m2!2m1!1sProperty+Managers+in+Mississauga!3m6!1s0x882b3fc2d934e465:0xbb65b938254ac62b!8m2!3d43.6622754!4d-79.598315!15sCiBQcm9wZXJ0eSBNYW5hZ2VycyBpbiBNaXNzaXNzYXVnYVoiIiBwcm9wZXJ0eSBtYW5hZ2VycyBpbiBtaXNzaXNzYXVnYZIBG3Byb3BlcnR5X21hbmFnZW1lbnRfY29tcGFueZoBI0NoWkRTVWhOTUc5blMwVkpRMEZuU1VOeU1tUk1kMVYzRUFF4AEA!16s%2Fg%2F1tdqv4ws?entry=ttu",43.5294057,-80.8722859,"5160 Explorer Dr #17, Mississauga, ON L4W 4T7, Canada",N/A
Canlight Management Inc.,"https://www.google.com/maps/place/Arcville+Property+Management/@43.5294057,-80.8722859,9z/data=!3m1!5s0x882b39ac8b76ccd7:0x679f81c28d15368f!4m10!1m2!2m1!1sProperty+Managers+in+Mississauga!3m6!1s0x882b41ba184d8cdd:0xb60971a06c3363fb!8m2!3d43.6066118!4d-79.6558434!15sCiBQcm9wZXJ0eSBNYW5hZ2VycyBpbiBNaXNzaXNzYXVnYZIBG3Byb3BlcnR5X21hbmFnZW1lbnRfY29tcGFueeABAA!16s%2Fg%2F11rq8m29f1?entry=ttu",43.5294057,-80.8722859,"5033 Four Springs Ave Unit 124, Mississauga, ON L5R 0G6, Canada",N/A
Arcville Property Management,"https://www.google.com/maps/place/Royal+York+Property+Management+-+Canadian+HQ/@43.5294057,-80.8722859,9z/data=!3m1!5s0x882b40ca2197189f:0x56668b5f5262d808!4m10!1m2!2m1!1sProperty+Managers+in+Mississauga!3m6!1s0x89d4cdb5501a7987:0x8bfac4836cbbc81f!8m2!3d43.7185581!4d-79.3374875!15sCiBQcm9wZXJ0eSBNYW5hZ2VycyBpbiBNaXNzaXNzYXVnYVoiIiBwcm9wZXJ0eSBtYW5hZ2VycyBpbiBtaXNzaXNzYXVnYZIBG3Byb3BlcnR5X21hbmFnZW1lbnRfY29tcGFueZoBI0NoWkRTVWhOTUc5blMwVkpRMEZuU1VOd2JHRmxPRmxCRUFF4AEA!16s%2Fg%2F11tsmd1h3b?entry=ttu",43.5294057,-80.8722859,"789 Don Mills Rd. Suite 801, Toronto, ON M3C 1T5, Canada",Closed ⋅ Opens 9 AM Mon
Royal York Property Management - Canadian HQ,"https://www.google.com/maps/place/High+Park+Properties+Management/@43.5294057,-80.8722859,9z/data=!3m1!5s0x89d4cd07a9bd2d1b:0xf6851be3430ecc08!4m10!1m2!2m1!1sProperty+Managers+in+Mississauga!3m6!1s0x882b47ca2d2e969f:0xbe9a0a1f0ab7485d!8m2!3d43.6004561!4d-79.6412044!15sCiBQcm9wZXJ0eSBNYW5hZ2VycyBpbiBNaXNzaXNzYXVnYZIBG3Byb3BlcnR5X21hbmFnZW1lbnRfY29tcGFueeABAA!16s%2Fg%2F11h53kxtmk?entry=ttu",43.5294057,-80.8722859,"52 Village Centre Pl Suite 200, Mississauga, ON L4Z 1V9, Canada",+1 905-805-6720
High Park Properties Management,"https://www.google.com/maps/place/Crown+Property+Management+Inc/@43.5294057,-80.8722859,9z/data=!4m10!1m2!2m1!1sProperty+Managers+in+Mississauga!3m6!1s0x882b6a8766fb8293:0xbf4640b1be3e9e44!8m2!3d43.5977013!4d-79.7456358!15sCiBQcm9wZXJ0eSBNYW5hZ2VycyBpbiBNaXNzaXNzYXVnYZIBG3Byb3BlcnR5X21hbmFnZW1lbnRfY29tcGFueeABAA!16s%2Fg%2F1hc55s25m?entry=ttu",43.5294057,-80.8722859,"2233 Argentia Rd, Mississauga, ON L5N 2X7, Canada","H7X3+3P Mississauga, Ontario, Canada"
Crown Property Management Inc,"https://www.google.com/maps/place/Real+Property+Management+Service+%7C+Property+Management+Mississauga/@43.5294057,-80.8722859,9z/data=!3m1!5s0x89d5cf79409b29c1:0x6935ead62d80823c!4m10!1m2!2m1!1sProperty+Managers+in+Mississauga!3m6!1s0x882b47cf6c0d4ced:0x8b491161a636d3a0!8m2!3d43.5773264!4d-79.4943477!15sCiBQcm9wZXJ0eSBNYW5hZ2VycyBpbiBNaXNzaXNzYXVnYZIBG3Byb3BlcnR5X21hbmFnZW1lbnRfY29tcGFueeABAA!16s%2Fg%2F11hz29vm3d?entry=ttu",43.5294057,-80.8722859,N/A,N/A
Real Property Management Service | Property Management Mississauga,"https://www.google.com/maps/place/ICC+Property+Management+Toronto/@43.5294057,-80.8722859,9z/data=!4m10!1m2!2m1!1sProperty+Managers+in+Mississauga!3m6!1s0x89d4d470f4a2d7c7:0x1b30fe525b57b375!8m2!3d43.8302693!4d-79.3561154!15sCiBQcm9wZXJ0eSBNYW5hZ2VycyBpbiBNaXNzaXNzYXVnYVoiIiBwcm9wZXJ0eSBtYW5hZ2VycyBpbiBtaXNzaXNzYXVnYZIBG3Byb3BlcnR5X21hbmFnZW1lbnRfY29tcGFueZoBI0NoWkRTVWhOTUc5blMwVkpRMEZuU1VOUGFWQnFUMUpSRUFF4AEA!16s%2Fg%2F1q62n5dqg?entry=ttu",43.5294057,-80.8722859,"2875 14th Ave Suite 300, Markham, ON L3R 5H8, Canada",N/A
ICC Property Management Toronto,"https://www.google.com/maps/place/D+M+I+Property+Management/@43.5294057,-80.8722859,9z/data=!4m10!1m2!2m1!1sProperty+Managers+in+Mississauga!3m6!1s0x882b386f5aff9daf:0x17144df170656b60!8m2!3d43.6346109!4d-79.5949991!15sCiBQcm9wZXJ0eSBNYW5hZ2VycyBpbiBNaXNzaXNzYXVnYZIBG3Byb3BlcnR5X21hbmFnZW1lbnRfY29tcGFueeABAA!16s%2Fg%2F1tfrskbq?entry=ttu",43.5294057,-80.8722859,"4100 Ponytrail Dr, Mississauga, ON L4W 2Y1, Canada",N/A
D M I Property Management,"https://www.google.com/maps/place/Ridge+Creek+Property+Management/@43.5294057,-80.8722859,9z/data=!4m10!1m2!2m1!1sProperty+Managers+in+Mississauga!3m6!1s0x88d30f639faa295d:0x419712fb422ae8dc!8m2!3d43.5939855!4d-79.8715215!15sCiBQcm9wZXJ0eSBNYW5hZ2VycyBpbiBNaXNzaXNzYXVnYZIBG3Byb3BlcnR5X21hbmFnZW1lbnRfY29tcGFueeABAA!16s%2Fg%2F11s4_gm2pl?entry=ttu",43.5294057,-80.8722859,N/A,N/A
Ridge Creek Property Management,"https://www.google.com/maps/place/M+%26+R+Property+Management/@43.5294057,-80.8722859,9z/data=!4m10!1m2!2m1!1sProperty+Managers+in+Mississauga!3m6!1s0x882b39ae7a4a4fcb:0x9cc8f27c64416690!8m2!3d43.665042!4d-79.5973028!15sCiBQcm9wZXJ0eSBNYW5hZ2VycyBpbiBNaXNzaXNzYXVnYZIBG3Byb3BlcnR5X21hbmFnZW1lbnRfY29tcGFueeABAA!16s%2Fg%2F1ts3g7c8?entry=ttu",43.5294057,-80.8722859,"2800 Matheson Blvd E, Mississauga, ON L4W 4X5, Canada",+1 905-238-7568
M & R Property Management,"https://www.google.com/maps/place/Allen+Property+Management+Inc./@43.5294057,-80.8722859,9z/data=!4m10!1m2!2m1!1sProperty+Managers+in+Mississauga!3m6!1s0x882b46e595a00e35:0x7cccc53a7b745522!8m2!3d43.5773385!4d-79.6205914!15sCiBQcm9wZXJ0eSBNYW5hZ2VycyBpbiBNaXNzaXNzYXVnYZIBG3Byb3BlcnR5X21hbmFnZW1lbnRfY29tcGFueeABAA!16s%2Fg%2F1tzvx5_3?entry=ttu",43.5294057,-80.8722859,"165 Dundas St W #905, Mississauga, ON L5B 2N6, Canada",N/A
Allen Property Management Inc.,"https://www.google.com/maps/place/Ro-Ro+Property+Management+Corporation/@43.5294057,-80.8722859,9z/data=!3m1!5s0x882b442024e4c471:0xfb47cd9073e8b518!4m10!1m2!2m1!1sProperty+Managers+in+Mississauga!3m6!1s0x882b43c05fa945e9:0x9a9a34f095c9c7a!8m2!3d43.5349019!4d-79.6756294!15sCiBQcm9wZXJ0eSBNYW5hZ2VycyBpbiBNaXNzaXNzYXVnYZIBG3Byb3BlcnR5X21hbmFnZW1lbnRfY29tcGFueeABAA!16s%2Fg%2F1tff879p?entry=ttu",43.5294057,-80.8722859,"2285 Dunwin Dr, Mississauga, ON L5L 3S3, Canada","G8MF+XP Mississauga, Ontario, Canada"
Ro-Ro Property Management Corporation,"https://www.google.com/maps/place/Almega+Property+Management/@43.5294057,-80.8722859,9z/data=!3m1!5s0x882b43c08cabd85b:0x4da6ea0c046d3e9d!4m10!1m2!2m1!1sProperty+Managers+in+Mississauga!3m6!1s0x882b418297a986df:0x1a160234b460cdd8!8m2!3d62.6573279!4d-95.989235!15sCiBQcm9wZXJ0eSBNYW5hZ2VycyBpbiBNaXNzaXNzYXVnYZIBG3Byb3BlcnR5X21hbmFnZW1lbnRfY29tcGFueeABAA!16s%2Fg%2F11h1z89hk2?entry=ttu",43.5294057,-80.8722859,N/A,N/A
Almega Property Management,"https://www.google.com/maps/place/7280+Darcel+Avenue+Apartments/@62.6573279,-97.1427995,9z/data=!4m10!1m2!2m1!1sProperty+Managers+in+Mississauga!3m6!1s0x882b3b71840e25d1:0x3d1ef33243dbaef1!8m2!3d43.7217903!4d-79.6366271!15sCiBQcm9wZXJ0eSBNYW5hZ2VycyBpbiBNaXNzaXNzYXVnYVoiIiBwcm9wZXJ0eSBtYW5hZ2VycyBpbiBtaXNzaXNzYXVnYZIBG3Byb3BlcnR5X21hbmFnZW1lbnRfY29tcGFueZoBJENoZERTVWhOTUc5blMwVkpRMEZuU1VSMGJGQXlSWGQzUlJBQuABAA!16s%2Fg%2F11j8klhr9g?entry=ttu",62.6573279,-97.1427995,"7280 Darcel Ave, Mississauga, ON L4T 3T7, Canada",N/A
7280 Darcel Avenue Apartments,"https://www.google.com/maps/place/World+of+Rental/@43.7217903,-80.7901916,9z/data=!4m10!1m2!2m1!1sProperty+Managers+in+Mississauga!3m6!1s0x882b3c065614d51b:0xfbdf697c1bed213f!8m2!3d43.7193953!4d-79.6372743!15sCiBQcm9wZXJ0eSBNYW5hZ2VycyBpbiBNaXNzaXNzYXVnYZIBGXJlYWxfZXN0YXRlX3JlbnRhbF9hZ2VuY3ngAQA!16s%2Fg%2F11cky022jp?entry=ttu",43.7217903,-80.7901916,"7215 Goreway Dr #2A02, Mississauga, ON L4T 0B4, Canada",N/A
World of Rental,"https://www.google.com/maps/place/Cando+Property+Management/@43.7217903,-80.7901916,9z/data=!3m1!5s0x882b3bf2f44e14cd:0xbe4c1cfddb6b3d33!4m10!1m2!2m1!1sProperty+Managers+in+Mississauga!3m6!1s0x882b47b53de3eda3:0x36099f3c1b640320!8m2!3d43.5810075!4d-79.58711!15sCiBQcm9wZXJ0eSBNYW5hZ2VycyBpbiBNaXNzaXNzYXVnYZIBG3Byb3BlcnR5X21hbmFnZW1lbnRfY29tcGFueeABAA!16s%2Fg%2F1wrgksyw?entry=ttu",43.7217903,-80.7901916,"573 North Service Road, Mississauga, ON L5A 1B6, Canada",N/A
Cando Property Management,"https://www.google.com/maps/place/LandLord+Property+%26+Rental+Management+Inc./@43.7217903,-80.7901916,9z/data=!4m10!1m2!2m1!1sProperty+Managers+in+Mississauga!3m6!1s0x882b34ae5f634b85:0xe3fe4bb541b2ac59!8m2!3d43.6680654!4d-79.3453499!15sCiBQcm9wZXJ0eSBNYW5hZ2VycyBpbiBNaXNzaXNzYXVnYVoiIiBwcm9wZXJ0eSBtYW5hZ2VycyBpbiBtaXNzaXNzYXVnYZIBG3Byb3BlcnR5X21hbmFnZW1lbnRfY29tcGFueZoBI0NoWkRTVWhOTUc5blMwVkpRMEZuU1VRMWNFcGhSMEpSRUFF4AEA!16s%2Fg%2F113jwwz8j?entry=ttu",43.7217903,-80.7901916,"573 North Service Road, Mississauga, ON L5A 1B6, Canada",N/A
LandLord Property & Rental Management Inc.,"https://www.google.com/maps/place/Comres+Property+Management/@43.7217903,-80.7901916,9z/data=!4m10!1m2!2m1!1sProperty+Managers+in+Mississauga!3m6!1s0x882b47135cebcaff:0x254cfdb034a0ae7c!8m2!3d43.5925875!4d-79.595722!15sCiBQcm9wZXJ0eSBNYW5hZ2VycyBpbiBNaXNzaXNzYXVnYZIBG3Byb3BlcnR5X21hbmFnZW1lbnRfY29tcGFueeABAA!16s%2Fg%2F11stxvwlwt?entry=ttu",43.7217903,-80.7901916,"2465 Cawthra Rd, Mississauga, ON L5A 3P2, Canada",N/A
